{"fetched_at":"2026-07-18T06:27:47.409Z","source":"https://celestrak.org/NORAD/elements/gp.php?GROUP=planet&FORMAT=JSON","constellation":"superdove","records":[{"OBJECT_NAME":"FLOCK 4Q-16","OBJECT_ID":"2023-174R","EPOCH":"2026-07-17T18:29:54.732768","CLASSIFICATION_TYPE":"U","MEAN_MOTION":15.50444218,"ECCENTRICITY":0.00067133,"INCLINATION":97.3821,"RA_OF_ASC_NODE":287.615,"ARG_OF_PERICENTER":69.7045,"MEAN_ANOMALY":290.4927,"EPHEMERIS_TYPE":0,"NORAD_CAT_ID":58271,"ELEMENT_SET_NO":999,"REV_AT_EPOCH":15031,"BSTAR":0.000233997,"MEAN_MOTION_DOT":0.00013239,"MEAN_MOTION_DDOT":0},{"OBJECT_NAME":"FLOCK 4Q-11","OBJECT_ID":"2023-174T","EPOCH":"2026-07-17T19:22:46.519104","CLASSIFICATION_TYPE":"U","MEAN_MOTION":15.50947893,"ECCENTRICITY":0.00061556,"INCLINATION":97.3855,"RA_OF_ASC_NODE":288.2917,"ARG_OF_PERICENTER":63.3003,"MEAN_ANOMALY":296.8879,"EPHEMERIS_TYPE":0,"NORAD_CAT_ID":58273,"ELEMENT_SET_NO":999,"REV_AT_EPOCH":15033,"BSTAR":0.00024521446,"MEAN_MOTION_DOT":0.00014129,"MEAN_MOTION_DDOT":0},{"OBJECT_NAME":"FLOCK 4Q-28","OBJECT_ID":"2023-174AA","EPOCH":"2026-07-17T18:52:03.531936","CLASSIFICATION_TYPE":"U","MEAN_MOTION":15.56861375,"ECCENTRICITY":0.00045817,"INCLINATION":97.3884,"RA_OF_ASC_NODE":291.0294,"ARG_OF_PERICENTER":55.5119,"MEAN_ANOMALY":304.6569,"EPHEMERIS_TYPE":0,"NORAD_CAT_ID":58280,"ELEMENT_SET_NO":999,"REV_AT_EPOCH":15050,"BSTAR":0.00024218017,"MEAN_MOTION_DOT":0.00017301,"MEAN_MOTION_DDOT":0},{"OBJECT_NAME":"FLOCK 4Q-27","OBJECT_ID":"2023-174AC","EPOCH":"2026-07-17T21:59:15.378144","CLASSIFICATION_TYPE":"U","MEAN_MOTION":15.5706969,"ECCENTRICITY":0.00037136,"INCLINATION":97.381,"RA_OF_ASC_NODE":290.5691,"ARG_OF_PERICENTER":60.9511,"MEAN_ANOMALY":299.2116,"EPHEMERIS_TYPE":0,"NORAD_CAT_ID":58282,"ELEMENT_SET_NO":999,"REV_AT_EPOCH":15053,"BSTAR":0.0002838717,"MEAN_MOTION_DOT":0.0002046,"MEAN_MOTION_DDOT":0},{"OBJECT_NAME":"FLOCK 4Q-7","OBJECT_ID":"2023-174BQ","EPOCH":"2026-07-17T19:19:21.686304","CLASSIFICATION_TYPE":"U","MEAN_MOTION":15.57481541,"ECCENTRICITY":0.00043104,"INCLINATION":97.3907,"RA_OF_ASC_NODE":291.3786,"ARG_OF_PERICENTER":33.7996,"MEAN_ANOMALY":326.3534,"EPHEMERIS_TYPE":0,"NORAD_CAT_ID":58318,"ELEMENT_SET_NO":999,"REV_AT_EPOCH":15051,"BSTAR":0.00028656496,"MEAN_MOTION_DOT":0.00020978,"MEAN_MOTION_DDOT":0},{"OBJECT_NAME":"FLOCK 4Q-2","OBJECT_ID":"2023-174BS","EPOCH":"2026-07-17T22:06:50.086656","CLASSIFICATION_TYPE":"U","MEAN_MOTION":15.50916689,"ECCENTRICITY":0.00045245,"INCLINATION":97.3839,"RA_OF_ASC_NODE":288.1203,"ARG_OF_PERICENTER":42.9323,"MEAN_ANOMALY":317.2282,"EPHEMERIS_TYPE":0,"NORAD_CAT_ID":58320,"ELEMENT_SET_NO":999,"REV_AT_EPOCH":15036,"BSTAR":0.00024427286,"MEAN_MOTION_DOT":0.00014053,"MEAN_MOTION_DDOT":0},{"OBJECT_NAME":"FLOCK 4Q-9","OBJECT_ID":"2023-174BU","EPOCH":"2026-07-17T19:23:48.390144","CLASSIFICATION_TYPE":"U","MEAN_MOTION":15.51439358,"ECCENTRICITY":0.00053599,"INCLINATION":97.3851,"RA_OF_ASC_NODE":288.118,"ARG_OF_PERICENTER":42.0454,"MEAN_ANOMALY":318.1209,"EPHEMERIS_TYPE":0,"NORAD_CAT_ID":58322,"ELEMENT_SET_NO":999,"REV_AT_EPOCH":15033,"BSTAR":0.00026945785,"MEAN_MOTION_DOT":0.0001581,"MEAN_MOTION_DDOT":0},{"OBJECT_NAME":"FLOCK 4Q-4","OBJECT_ID":"2023-174BZ","EPOCH":"2026-07-17T12:03:08.035776","CLASSIFICATION_TYPE":"U","MEAN_MOTION":15.49928258,"ECCENTRICITY":0.0005587,"INCLINATION":97.3826,"RA_OF_ASC_NODE":286.9128,"ARG_OF_PERICENTER":68.5276,"MEAN_ANOMALY":291.657,"EPHEMERIS_TYPE":0,"NORAD_CAT_ID":58327,"ELEMENT_SET_NO":999,"REV_AT_EPOCH":15025,"BSTAR":0.00024718,"MEAN_MOTION_DOT":0.00013735,"MEAN_MOTION_DDOT":0},{"OBJECT_NAME":"FLOCK 4Q-13","OBJECT_ID":"2023-174CA","EPOCH":"2026-07-17T19:19:03.340128","CLASSIFICATION_TYPE":"U","MEAN_MOTION":15.52954271,"ECCENTRICITY":0.00057079,"INCLINATION":97.4002,"RA_OF_ASC_NODE":290.5463,"ARG_OF_PERICENTER":48.0596,"MEAN_ANOMALY":312.1143,"EPHEMERIS_TYPE":0,"NORAD_CAT_ID":58328,"ELEMENT_SET_NO":999,"REV_AT_EPOCH":15042,"BSTAR":0.00021497702,"MEAN_MOTION_DOT":0.00013295,"MEAN_MOTION_DDOT":0},{"OBJECT_NAME":"FLOCK 4BE-18","OBJECT_ID":"2024-149N","EPOCH":"2026-07-17T16:53:07.151136","CLASSIFICATION_TYPE":"U","MEAN_MOTION":15.42762302,"ECCENTRICITY":0.0005241,"INCLINATION":97.3724,"RA_OF_ASC_NODE":282.7723,"ARG_OF_PERICENTER":137.6755,"MEAN_ANOMALY":222.4897,"EPHEMERIS_TYPE":0,"NORAD_CAT_ID":60480,"ELEMENT_SET_NO":999,"REV_AT_EPOCH":10701,"BSTAR":0.0002153991,"MEAN_MOTION_DOT":0.00009334,"MEAN_MOTION_DDOT":0},{"OBJECT_NAME":"FLOCK 4BE-7","OBJECT_ID":"2024-149P","EPOCH":"2026-07-17T11:29:54.398112","CLASSIFICATION_TYPE":"U","MEAN_MOTION":15.41519532,"ECCENTRICITY":0.0004406,"INCLINATION":97.3751,"RA_OF_ASC_NODE":281.8315,"ARG_OF_PERICENTER":142.8195,"MEAN_ANOMALY":217.3358,"EPHEMERIS_TYPE":0,"NORAD_CAT_ID":60481,"ELEMENT_SET_NO":999,"REV_AT_EPOCH":10691,"BSTAR":0.00030338,"MEAN_MOTION_DOT":0.0001265,"MEAN_MOTION_DDOT":0},{"OBJECT_NAME":"FLOCK 4BE-36","OBJECT_ID":"2024-149U","EPOCH":"2026-07-17T18:55:13.031328","CLASSIFICATION_TYPE":"U","MEAN_MOTION":15.43594294,"ECCENTRICITY":0.00050028,"INCLINATION":97.3739,"RA_OF_ASC_NODE":283.6018,"ARG_OF_PERICENTER":145.6214,"MEAN_ANOMALY":214.5359,"EPHEMERIS_TYPE":0,"NORAD_CAT_ID":60486,"ELEMENT_SET_NO":999,"REV_AT_EPOCH":10707,"BSTAR":0.00021447598,"MEAN_MOTION_DOT":0.00009558,"MEAN_MOTION_DDOT":0},{"OBJECT_NAME":"FLOCK 4BE-25","OBJECT_ID":"2024-149V","EPOCH":"2026-07-17T18:32:21.278400","CLASSIFICATION_TYPE":"U","MEAN_MOTION":15.39587397,"ECCENTRICITY":0.00037963,"INCLINATION":97.3792,"RA_OF_ASC_NODE":282.1459,"ARG_OF_PERICENTER":136.5774,"MEAN_ANOMALY":223.5771,"EPHEMERIS_TYPE":0,"NORAD_CAT_ID":60487,"ELEMENT_SET_NO":999,"REV_AT_EPOCH":10694,"BSTAR":0.00019943018,"MEAN_MOTION_DOT":0.00007767,"MEAN_MOTION_DDOT":0},{"OBJECT_NAME":"FLOCK 4BE-31","OBJECT_ID":"2024-149W","EPOCH":"2026-07-17T18:56:47.159808","CLASSIFICATION_TYPE":"U","MEAN_MOTION":15.45222952,"ECCENTRICITY":0.00038515,"INCLINATION":97.3792,"RA_OF_ASC_NODE":284.5545,"ARG_OF_PERICENTER":144.0587,"MEAN_ANOMALY":216.0921,"EPHEMERIS_TYPE":0,"NORAD_CAT_ID":60488,"ELEMENT_SET_NO":999,"REV_AT_EPOCH":10710,"BSTAR":0.00025423467,"MEAN_MOTION_DOT":0.00011993,"MEAN_MOTION_DDOT":0},{"OBJECT_NAME":"FLOCK 4BE-20","OBJECT_ID":"2024-149X","EPOCH":"2026-07-17T22:42:05.456736","CLASSIFICATION_TYPE":"U","MEAN_MOTION":15.38860051,"ECCENTRICITY":0.00052312,"INCLINATION":97.3685,"RA_OF_ASC_NODE":281.1224,"ARG_OF_PERICENTER":146.2125,"MEAN_ANOMALY":213.9455,"EPHEMERIS_TYPE":0,"NORAD_CAT_ID":60489,"ELEMENT_SET_NO":999,"REV_AT_EPOCH":10694,"BSTAR":0.00021359113,"MEAN_MOTION_DOT":0.0000813,"MEAN_MOTION_DDOT":0},{"OBJECT_NAME":"FLOCK 4BE-23","OBJECT_ID":"2024-149Y","EPOCH":"2026-07-16T18:34:14.282688","CLASSIFICATION_TYPE":"U","MEAN_MOTION":15.38391323,"ECCENTRICITY":0.0004798,"INCLINATION":97.3776,"RA_OF_ASC_NODE":280.3352,"ARG_OF_PERICENTER":151.9413,"MEAN_ANOMALY":208.2092,"EPHEMERIS_TYPE":0,"NORAD_CAT_ID":60490,"ELEMENT_SET_NO":999,"REV_AT_EPOCH":10674,"BSTAR":0.00022341406,"MEAN_MOTION_DOT":0.00008378,"MEAN_MOTION_DDOT":0}]}
