FLOCK 4Q-16             
1 58271U 23174R   26198.77077237  .00013239  00000+0  23400-3 0  9995
2 58271  97.3821 287.6150 0006713  69.7045 290.4927 15.50444218150319
FLOCK 4Q-11             
1 58273U 23174T   26198.80748286  .00014129  00000+0  24521-3 0  9994
2 58273  97.3855 288.2917 0006155  63.3003 296.8879 15.50947893150335
FLOCK 4Q-28             
1 58280U 23174AA  26198.78615199  .00017301  00000+0  24218-3 0  9993
2 58280  97.3884 291.0294 0004581  55.5119 304.6569 15.56861375150506
FLOCK 4Q-27             
1 58282U 23174AC  26198.91615021  .00020460  00000+0  28387-3 0  9995
2 58282  97.3810 290.5691 0003713  60.9511 299.2116 15.57069690150535
FLOCK 4Q-7              
1 58318U 23174BQ  26198.80511211  .00020978  00000+0  28656-3 0  9992
2 58318  97.3907 291.3786 0004310  33.7996 326.3534 15.57481541150512
FLOCK 4Q-2              
1 58320U 23174BS  26198.92141304  .00014053  00000+0  24427-3 0  9999
2 58320  97.3839 288.1203 0004524  42.9323 317.2282 15.50916689150361
FLOCK 4Q-9              
1 58322U 23174BU  26198.80819896  .00015810  00000+0  26946-3 0  9996
2 58322  97.3851 288.1180 0005359  42.0454 318.1209 15.51439358150334
FLOCK 4Q-4              
1 58327U 23174BZ  26198.50217634  .00013735  00000+0  24718-3 0  9999
2 58327  97.3826 286.9128 0005587  68.5276 291.6570 15.49928258150253
FLOCK 4Q-13             
1 58328U 23174CA  26198.80489977  .00013295  00000+0  21498-3 0  9997
2 58328  97.4002 290.5463 0005707  48.0596 312.1143 15.52954271150428
FLOCK 4BE-18            
1 60480U 24149N   26198.70355499  .00009334  00000+0  21540-3 0  9999
2 60480  97.3724 282.7723 0005241 137.6755 222.4897 15.42762302107014
FLOCK 4BE-7             
1 60481U 24149P   26198.47910183  .00012650  00000+0  30338-3 0  9991
2 60481  97.3751 281.8315 0004406 142.8195 217.3358 15.41519532106917
FLOCK 4BE-36            
1 60486U 24149U   26198.78834527  .00009558  00000+0  21448-3 0  9992
2 60486  97.3739 283.6018 0005002 145.6214 214.5359 15.43594294107072
FLOCK 4BE-25            
1 60487U 24149V   26198.77246850  .00007767  00000+0  19943-3 0  9995
2 60487  97.3792 282.1459 0003796 136.5774 223.5771 15.39587397106947
FLOCK 4BE-31            
1 60488U 24149W   26198.78943472  .00011993  00000+0  25423-3 0  9997
2 60488  97.3792 284.5545 0003851 144.0587 216.0921 15.45222952107101
FLOCK 4BE-20            
1 60489U 24149X   26198.94589649  .00008130  00000+0  21359-3 0  9991
2 60489  97.3685 281.1224 0005231 146.2125 213.9455 15.38860051106945
FLOCK 4BE-23            
1 60490U 24149Y   26197.77377642  .00008378  00000+0  22341-3 0  9997
2 60490  97.3776 280.3352 0004798 151.9413 208.2092 15.38391323106744
